OBJECT_NAME,OBJECT_ID,EPOCH,MEAN_MOTION,ECCENTRICITY,INCLINATION,RA_OF_ASC_NODE,ARG_OF_PERICENTER,MEAN_ANOMALY,EPHEMERIS_TYPE,CLASSIFICATION_TYPE,NORAD_CAT_ID,ELEMENT_SET_NO,REV_AT_EPOCH,BSTAR,MEAN_MOTION_DOT,MEAN_MOTION_DDOT
TIANMU-1 21,2023-208C,2026-06-08T04:28:25.900896,15.34916483,.0006694,97.4492,278.7100,0.4036,359.7211,0,U,58662,999,13618,.25145E-3,.8439E-4,0
TIANMU-1 22,2023-208D,2026-06-08T04:24:49.231296,15.30933844,.0004064,97.4487,275.3831,34.0664,326.0837,0,U,58663,999,13595,.27592E-3,.8172E-4,0
TIANMU-1 15,2024-004A,2026-06-08T04:28:28.319232,15.26932511,.0007588,97.4675,345.3758,32.5809,327.5897,0,U,58700,999,13440,.25249E-3,.6608E-4,0
TIANMU-1 16,2024-004B,2026-06-08T04:10:38.237952,15.26657859,.0006693,97.4621,344.6105,37.1965,322.9736,0,U,58701,999,13440,.24694E-3,.6406E-4,0
TIANMU-1 17,2024-004C,2026-06-08T05:24:04.123008,15.26655720,.0006369,97.4650,345.1431,42.5292,317.6438,0,U,58702,999,13440,.19514E-3,.5045E-4,0
TIANMU-1 18,2024-004D,2026-06-08T04:52:14.874816,15.26916547,.0004868,97.4667,345.3708,42.4121,317.7493,0,U,58703,999,13440,.24588E-3,.6427E-4,0
INSAT-3DS,2024-033A,2026-06-08T01:47:43.406016,1.00273229,.0001289,0.0143,154.3210,278.9209,292.2390,0,U,58990,999,4697,0,-.141E-5,0
METEOR-M2 4,2024-039A,2026-06-08T04:18:41.698656,14.22428666,.0006759,98.7013,118.5911,186.8179,173.2908,0,U,59051,999,11798,.3043E-4,.24E-6,0
GOES 19,2024-119A,2026-06-08T02:45:28.745856,1.00270085,.0000478,0.0154,90.4331,64.7853,67.4679,0,U,60133,999,687,0,0,0
MTG-S1,2025-143A,2026-06-08T03:05:56.482944,1.00271630,.0001056,0.6113,336.8634,29.9381,292.7306,0,U,64723,999,332,0,-.17E-6,0
METOP-SGA1,2025-172A,2026-06-08T03:05:58.435584,14.21508416,.000094,98.6646,219.0220,87.4987,272.6298,0,U,65159,999,4250,.4368E-4,.52E-6,0
FENGYUN 3H,2025-219A,2026-06-08T02:12:15.178176,14.19918952,.0001635,98.6766,100.0380,83.8780,276.2582,0,U,65815,999,3609,.55415E-4,.74E-6,0
